GLOBALSTAR M045         
1 25676U 99019A   26011.29840599 -.00000097  00000+0 -34303-4 0  9994
2 25676  51.9978  72.1026 0000429 157.9295 228.4450 12.27070939218947
GLOBALSTAR M019         
1 25677U 99019B   26011.28842950 -.00000152  00000+0 -64511-3 0  9992
2 25677  51.9854 217.1444 0002177  50.7206 120.0617 12.13881694210419
GLOBALSTAR M044         
1 25678U 99019C   26011.21915311 -.00000062  00000+0  29604-3 0  9991
2 25678  51.9935 194.7195 0007244  81.8446  90.0777 11.90263941196097
GLOBALSTAR M042         
1 25679U 99019D   26011.24131423 -.00000057  00000+0  32842-3 0  9991
2 25679  51.9993 183.6058 0003280  30.7085 140.7192 12.22095981210695
GLOBALSTAR M025         
1 25770U 99031A   26011.32156399 -.00000062  00000+0  16850-3 0  9992
2 25770  51.9839  37.1108 0002414 132.2353 317.1369 11.22560349505089
GLOBALSTAR M049         
1 25771U 99031B   26010.43564457 -.00000070  00000+0 -14998-3 0  9993
2 25771  51.9884  84.3409 0002537  21.1273 338.9628 11.12124395140485
GLOBALSTAR M047         
1 25772U 99031C   26011.02509312 -.00000082  00000+0 -34499-3 0  9990
2 25772  51.9845  60.1179 0016213 258.2858 101.6129 11.31931906494643
GLOBALSTAR M052         
1 25773U 99031D   26011.22947759 -.00000020  00000+0  15255-2 0  9993
2 25773  51.9828 188.2910 0003397 135.6855  34.6567 11.15063474501710
